CSS (TIANHE)            
1 48274U 21035A   24030.93494787  .00016200  00000+0  17708-3 0  9990
2 48274  41.4671 207.8251 0008715 271.3670  88.6171 15.62914453157455
